ONEWEB-0055             
1 45443U 20020V   24064.87440810  .00000340  00000+0  92377-3 0  9999
2 45443  87.9027 186.9387 0001604 103.0506 257.0801 13.11415866193263
ONEWEB-0093             
1 45444U 20020W   24064.84761471  .00000109  00000+0  27081-3 0  9999
2 45444  87.9033 186.9229 0001590  93.5572 266.5738 13.11420687193324
ONEWEB-0029             
1 45445U 20020X   24064.86709589  .00000486  00000+0  13368-2 0  9994
2 45445  87.9031 186.9334 0001945 102.3500 257.7846 13.11417811193309
ONEWEB-0068             
1 45446U 20020Y   24064.84192483 -.00000246  00000+0 -72973-3 0  9996
2 45446  87.9034 186.9232 0001730  99.2140 260.9183 13.11419803193242
ONEWEB-0046             
1 45447U 20020Z   24064.83948841 -.00000437  00000+0 -12678-2 0  9990
2 45447  87.9032 186.9359 0002080 110.0168 250.1184 13.11418660193255
ONEWEB-0063             
1 45448U 20020AA  24064.86872733  .00000491  00000+0  13495-2 0  9996
2 45448  87.9030 186.9323 0001976 115.2560 244.8773 13.11418078193348
ONEWEB-0019             
1 45449U 20020AB  24064.84274348 -.00000103  00000+0 -32680-3 0  9993
2 45449  87.9037 186.9360 0001588 109.9219 250.2080 13.11418650193187
ONEWEB-0094             
1 45450U 20020AC  24065.04635055  .00000679  00000+0  17146-2 0  9999
2 45450  87.9255 171.7655 0001791 108.6431 251.4895 13.17656591196463
ONEWEB-0087             
1 45451U 20020AD  24064.87522323  .00000300  00000+0  81108-3 0  9994
2 45451  87.9022 186.9081 0001999 100.2666 259.8687 13.11414156193231
ONEWEB-0082             
1 45452U 20020AE  24064.87684260  .00000247  00000+0  65983-3 0  9997
2 45452  87.9028 186.9074 0001680 105.0154 255.1159 13.11413418193325
ONEWEB-0050             
1 45453U 20020AF  24064.91667824  .00047905  00000+0  51188-2 0  9993
2 45453  87.9979  54.5292 0005912  96.1725 321.7799 14.88544390  5511
ONEWEB-0034             
1 45454U 20020AG  24064.89631742 -.00000180  00000+0 -54376-3 0  9990
2 45454  87.9029 186.9210 0001659 108.5735 251.5573 13.11415934193245
ONEWEB-0060             
1 45455U 20020AH  24064.82814548  .00002083  00000+0  58414-2 0  9999
2 45455  87.9032 186.9307 0001664 108.4572 251.6737 13.11409110193197
ONEWEB-0086             
1 45456U 20020AJ  24064.84598725  .00000055  00000+0  12028-3 0  9997
2 45456  87.9031 186.9331 0002006  94.4623 265.6734 13.11420555193251
ONEWEB-0088             
1 45457U 20020AK  24064.89955090 -.00000544  00000+0 -15711-2 0  9991
2 45457  87.9025 186.8923 0001877 104.6563 255.4773 13.11414307193194
ONEWEB-0102             
1 47258U 20100A   24064.79619109  .00005269  00000+0  14608-1 0  9998
2 47258  87.9041 156.7435 0002080 102.1835 257.9527 13.12413305155289
ONEWEB-0109             
1 47259U 20100B   24064.80411950 -.00000169  00000+0 -50552-3 0  9991
2 47259  87.9042 156.7042 0001738 108.7622 251.3695 13.12440088155114
ONEWEB-0110             
1 47260U 20100C   24064.75171100 -.00000303  00000+0 -87665-3 0  9992
2 47260  87.9034 156.7257 0001724 103.2473 256.8848 13.12443592155274
ONEWEB-0111             
1 47261U 20100D   24064.78507414  .00000416  00000+0  11216-2 0  9998
2 47261  87.9042 156.7107 0001847 104.2912 255.8422 13.12440212155119
ONEWEB-0114             
1 47262U 20100E   24064.73899408 -.00000451  00000+0 -12886-2 0  9996
2 47262  87.9036 156.7406 0001616 121.0029 239.1258 13.12440677155066
ONEWEB-0117             
1 47263U 20100F   24064.80729792 -.00000352  00000+0 -10132-2 0  9995
2 47263  87.9041 156.6969 0001914 105.7782 254.3558 13.12440071155084
ONEWEB-0118             
1 47264U 20100G   24064.76283717 -.00000035  00000+0 -13283-3 0  9992
2 47264  87.9040 156.7103 0001989 124.4701 235.6615 13.12442676155276
ONEWEB-0119             
1 47265U 20100H   24064.94389765  .00000453  00000+0  12232-2 0  9997
2 47265  87.9039 156.7131 0001804 103.5073 256.6257 13.12441223155274
ONEWEB-0120             
1 47266U 20100J   24064.81432389 -.00000370  00000+0 -10617-2 0  9990
2 47266  87.9039 156.7268 0002124 106.6867 253.4494 13.12524044155289
ONEWEB-0121             
1 47267U 20100K   24064.80253568  .00000149  00000+0  38025-3 0  9996
2 47267  87.9032 156.7252 0001935 102.6606 257.4739 13.12438135155193
ONEWEB-0122             
1 47268U 20100L   24064.79763368  .00000034  00000+0  57933-4 0  9992
2 47268  87.9035 156.7306 0001700 106.5351 253.5964 13.12439695155107
ONEWEB-0123             
1 47269U 20100M   24065.17420965 -.00000560  00000+0 -15924-2 0  9997
2 47269  87.9068 156.6656 0001941 110.3184 249.8154 13.12428820155292
ONEWEB-0124             
1 47270U 20100N   24065.16309541  .00000549  00000+0  14897-2 0  9997
2 47270  87.9041 156.6644 0001879  96.0383 264.0960 13.12450152155177
ONEWEB-0125             
1 47271U 20100P   24064.75648081 -.00000171  00000+0 -51134-3 0  9996
2 47271  87.9042 156.7026 0002326 108.6726 251.4655 13.12443300155182
ONEWEB-0126             
1 47272U 20100Q   24064.78427935  .00000427  00000+0  11528-2 0  9997
2 47272  87.9038 156.7079 0001710 109.7579 250.3734 13.12441963155257
ONEWEB-0127             
1 47273U 20100R   24064.74535134 -.00000717  00000+0 -20284-2 0  9998
2 47273  87.9038 156.7399 0001738 109.2825 250.8492 13.12443271155274
ONEWEB-0128             
1 47274U 20100S   24064.76760154  .00000169  00000+0  43462-3 0  9996
2 47274  87.9048 156.7327 0001670  96.6407 263.4912 13.12442806155299
ONEWEB-0129             
1 47275U 20100T   24064.74693320 -.00000444  00000+0 -12702-2 0  9995
2 47275  87.9039 156.7101 0001590 162.6839 197.4344 13.12440994155228
ONEWEB-0130             
1 47276U 20100U   24064.77554423  .00000386  00000+0  10364-2 0  9994
2 47276  87.9039 156.7142 0001686 104.0033 256.1283 13.12442219155199
ONEWEB-0131             
1 47277U 20100V   24064.77234983  .00000271  00000+0  71921-3 0  9991
2 47277  87.9045 156.7267 0001826 102.5397 257.5935 13.12445590155236
ONEWEB-0132             
1 47278U 20100W   24064.80094651 -.00000057  00000+0 -19470-3 0  9997
2 47278  87.9041 156.7230 0002057 101.4840 258.6520 13.12439893155131
ONEWEB-0133             
1 47279U 20100X   24064.81684632 -.00002274  00000+0 -63600-2 0  9999
2 47279  87.9033 156.7239 0001695 101.4846 258.6473 13.12423882155290
ONEWEB-0134             
1 47280U 20100Y   24064.78665541  .00000409  00000+0  11014-2 0  9993
2 47280  87.9033 156.7195 0001590 101.4217 258.7090 13.12442716155269
ONEWEB-0135             
1 47281U 20100Z   24064.75488907 -.00000225  00000+0 -66148-3 0  9997
2 47281  87.9039 156.7349 0001794 104.0042 256.1287 13.12443529155283
ONEWEB-0136             
1 47282U 20100AA  24064.77713171  .00000387  00000+0  10414-2 0  9995
2 47282  87.9039 156.6995 0001313 102.8162 257.3113 13.12441933155217
ONEWEB-0137             
1 47283U 20100AB  24064.81047190 -.00000389  00000+0 -11169-2 0  9994
2 47283  87.9035 156.7222 0001856 112.2237 247.9088 13.12439650155127
ONEWEB-0138             
1 47284U 20100AC  24064.94230765  .00000444  00000+0  11988-2 0  9990
2 47284  87.9035 156.7087 0001752 107.1652 252.9669 13.12441320155225
ONEWEB-0139             
1 47285U 20100AD  24064.76124727 -.00000102  00000+0 -31768-3 0  9993
2 47285  87.9040 156.7118 0001828 104.3617 255.7714 13.12443074155276
ONEWEB-0140             
1 47286U 20100AE  24064.78348446  .00000470  00000+0  12714-2 0  9997
2 47286  87.9035 156.7153 0001670 105.2801 254.8512 13.12440960155244
ONEWEB-0141             
1 47287U 20100AF  24064.80332637 -.00000185  00000+0 -54997-3 0  9991
2 47287  87.9037 156.7094 0002095 109.8060 250.3294 13.12439658155239
ONEWEB-0142             
1 47288U 20100AG  24064.79697930  .00000071  00000+0  16181-3 0  9995
2 47288  87.9036 156.7037 0001754 115.2182 244.9129 13.12441660155224
ONEWEB-0143             
1 47289U 20100AH  24064.75011307 -.00000404  00000+0 -11571-2 0  9999
2 47289  87.9042 156.7324 0001975 106.4419 253.6926 13.12441120155190
ONEWEB-0144             
1 47290U 20100AJ  24064.79936025 -.00000007  00000+0 -54948-4 0  9994
2 47290  87.9037 156.7064 0001592 117.2750 242.8541 13.12441612155122
ONEWEB-0145             
1 47291U 20100AK  24064.77077913  .00000253  00000+0  66749-3 0  9997
2 47291  87.9040 156.7358 0001745 109.4609 250.6708 13.12442416155315
ONEWEB-0146             
1 47292U 20100AL  24064.76600963  .00000082  00000+0  19235-3 0  9992
2 47292  87.9042 156.7189 0002300  98.2096 261.9293 13.12450281155226
ONEWEB-0147             
1 47293U 20100AM  24064.80888478 -.00000350  00000+0 -10076-2 0  9990
2 47293  87.9035 156.7085 0001566 101.7994 258.3311 13.12439727155126
ONEWEB-0115             
1 48042U 21025A   24064.87838468 -.00000115  00000+0 -34972-3 0  9992
2 48042  87.8955 126.3294 0002083  96.7277 263.4089 13.13469562144078
ONEWEB-0152             
1 48043U 21025B   24064.89107087 -.00000190  00000+0 -55543-3 0  9991
2 48043  87.8958 126.3199 0001922  98.4669 261.6678 13.13468090144036
ONEWEB-0153             
1 48044U 21025C   24064.86886571  .00000108  00000+0  26054-3 0  9993
2 48044  87.8962 126.3097 0001878 102.5504 257.5835 13.13469211144028
ONEWEB-0154             
1 48045U 21025D   24064.86569056  .00000212  00000+0  54424-3 0  9998
2 48045  87.8958 126.3249 0001935  99.5688 260.5660 13.13470025143984
ONEWEB-0116             
1 48046U 21025E   24064.60223501  .00001699  00000+0  46174-2 0  9995
2 48046  87.8961 126.3423 0002357  97.5073 262.6324 13.13460650144094
ONEWEB-0150             
1 48047U 21025F   24064.88155044 -.00000147  00000+0 -43714-3 0  9999
2 48047  87.8958 126.3122 0002076 100.8622 259.2740 13.13468453144029
ONEWEB-0107             
1 48048U 21025G   24064.88313807 -.00000135  00000+0 -40535-3 0  9998
2 48048  87.8954 126.3099 0001904 111.2757 248.8576 13.13468160144007
ONEWEB-0101             
1 48049U 21025H   24064.92281944  .00000500  00000+0  13336-2 0  9992
2 48049  87.8962 126.3122 0001811 100.6731 259.4602 13.13472051143983
